GLOBALSTAR M024         
1 25883U 99043A   24140.46192194 -.00000111  00000+0 -16319-2 0  9994
2 25883  51.9988 188.9976 0001780 186.3983 277.1456 11.10158839 71131
GLOBALSTAR M027         
1 25884U 99043B   24141.49058245 -.00000045  00000+0  68964-3 0  9996
2 25884  52.0211 253.5335 0021567  78.7948 281.5268 11.04368719 97895
GLOBALSTAR M054         
1 25885U 99043C   24141.32866848 -.00000074  00000+0 -76964-4 0  9998
2 25885  52.0136  87.1165 0004364 227.6206 304.6813 11.39203414 74607
GLOBALSTAR M053         
1 25886U 99043D   24139.95828558 -.00000056  00000+0  37709-3 0  9993
2 25886  52.0017  15.6264 0003825 122.9482 250.2985 11.27655077 74975
GLOBALSTAR M058         
1 25907U 99049A   24140.83587102 -.00000032  00000+0  70588-3 0  9995
2 25907  51.9947  79.5049 0002054 248.8422 111.2193 11.93178193105798
GLOBALSTAR M050         
1 25908U 99049B   24141.35731527  .00000017  00000+0  11877-2 0  9993
2 25908  51.9971 115.1372 0009322 330.2481 196.5123 12.07434755105466
GLOBALSTAR M033         
1 25909U 99049C   24141.10045202 -.00000046  00000+0  43491-3 0  9996
2 25909  51.9937  14.8293 0011767 176.4402 183.6530 12.20273762120476
GLOBALSTAR M055         
1 25910U 99049D   24140.10809226 -.00000075  00000+0  16253-3 0  9999
2 25910  52.0041  47.5450 0007648  35.5670 324.5690 12.29401426119817
